ONEWEB-0427             
1 50499U 21132AG  24291.50413066  .00000049  00000+0  92430-4 0  9993
2 50499  87.9051  96.3864 0001379  88.2607 271.8683 13.18689081141529
ONEWEB-0429             
1 50500U 21132AH  24291.49148253  .00000151  00000+0  35071-3 0  9998
2 50500  87.9057  96.4021 0001481  97.8543 262.2757 13.18687660141496
ONEWEB-0430             
1 50501U 21132AJ  24291.48042759  .00000102  00000+0  22635-3 0  9990
2 50501  87.9057  96.4050 0001891  79.3948 280.7397 13.18685175141537
ONEWEB-0432             
1 50502U 21132AK  24291.51203594  .00000100  00000+0  22001-3 0  9996
2 50502  87.9053  96.3903 0001571  74.8350 285.2956 13.18687651141499
ONEWEB-0440             
1 50503U 21132AL  24291.49940601  .00000116  00000+0  26213-3 0  9997
2 50503  87.9056  96.3851 0001878 105.2900 254.8440 13.18693967141481
ONEWEB-0450             
1 50504U 21132AM  24291.49322063  .00000145  00000+0  33592-3 0  9994
2 50504  87.9055  96.4147 0001982  87.7569 272.3790 13.18686668141518
ONEWEB-0410             
1 51622U 22012A   24291.50010124  .00000093  00000+0  20535-3 0  9993
2 51622  87.9084 126.9039 0000252 146.0424 214.0724 13.17651888133672
ONEWEB-0411             
1 51623U 22012B   24291.36001051 -.00000521  00000+0 -15301-2 0  9999
2 51623  87.8941 157.2636 0002056  61.4802 298.6532 13.10373160129686
